{
    "links": {
        "self": "http://www.neowsapp.com/rest/v1/neo/54017683?api_key=iIulBulltgU6a56xZRHN4H3l9WmuAYTsLGpBGhQ2"
    },
    "id": "54017683",
    "neo_reference_id": "54017683",
    "name": "(2020 MW3)",
    "designation": "2020 MW3",
    "nasa_jpl_url": "http://ssd.jpl.nasa.gov/sbdb.cgi?sstr=54017683",
    "absolute_magnitude_h": 23.451,
    "estimated_diameter": {
        "kilometers": {
            "estimated_diameter_min": 0.0542444083,
            "estimated_diameter_max": 0.1212941845
        },
        "meters": {
            "estimated_diameter_min": 54.2444083433,
            "estimated_diameter_max": 121.2941844548
        },
        "miles": {
            "estimated_diameter_min": 0.0337059023,
            "estimated_diameter_max": 0.0753686887
        },
        "feet": {
            "estimated_diameter_min": 177.9672246689,
            "estimated_diameter_max": 397.9468121266
        }
    },
    "is_potentially_hazardous_asteroid": false,
    "close_approach_data": [
        {
            "close_approach_date": "2020-07-01",
            "close_approach_date_full": "2020-Jul-01 18:19",
            "epoch_date_close_approach": 1593627540000,
            "relative_velocity": {
                "kilometers_per_second": "6.3140740467",
                "kilometers_per_hour": "22730.6665682167",
                "miles_per_hour": "14123.9522351233"
            },
            "miss_distance": {
                "astronomical": "0.2210998748",
                "lunar": "86.0078512972",
                "kilometers": "33076070.327346676",
                "miles": "20552517.0685330888"
            },
            "orbiting_body": "Earth"
        }
    ],
    "orbital_data": {
        "orbit_id": "4",
        "orbit_determination_date": "2020-11-25 05:21:24",
        "first_observation_date": "2020-06-26",
        "last_observation_date": "2020-07-25",
        "data_arc_in_days": 29,
        "observations_used": 17,
        "orbit_uncertainty": "7",
        "minimum_orbit_intersection": ".158885",
        "jupiter_tisserand_invariant": "3.358",
        "epoch_osculation": "2459000.5",
        "eccentricity": ".5048086254835742",
        "semi_major_axis": "2.372525560650449",
        "inclination": "1.921354191160757",
        "ascending_node_longitude": "269.3959637124838",
        "orbital_period": "1334.795632420231",
        "perihelion_distance": "1.17485419345385",
        "perihelion_argument": "18.42473242803453",
        "aphelion_distance": "3.570196927847049",
        "perihelion_time": "2459031.892838169078",
        "mean_anomaly": "351.5332194184838",
        "mean_motion": ".2697042088362648",
        "equinox": "J2000",
        "orbit_class": {
            "orbit_class_type": "AMO",
            "orbit_class_description": "Near-Earth asteroid orbits similar to that of 1221 Amor",
            "orbit_class_range": "1.017 AU < q (perihelion) < 1.3 AU"
        }
    },
    "is_sentry_object": false
}